{"type": "FeatureCollection", "features": [ {"type": "Feature", "properties": {"norad_id": 62339, "name": "GPS BIII-7  (PRN 01)", "group": "gps-ops", "lat": -14.31425548576508, "lon": -29.02796888557865, "alt_km": 20149.98243264599, "timestamp": "2025-12-23T07:45:09.663536+00:00", "meta": {"OBJECT_NAME": "GPS BIII-7  (PRN 01)", "OBJECT_ID": "2024-242A", "EPOCH": "2025-12-22T12:02:33.556992", "MEAN_MOTION": 2.00568132, "ECCENTRICITY": 0.00128077, "INCLINATION": 54.9208, "RA_OF_ASC_NODE": 341.3454, "ARG_OF_PERICENTER": 346.2078, "MEAN_ANOMALY": 123.2241, "EPHEMERIS_TYPE": 0, "CLASSIFICATION_TYPE": "U", "NORAD_CAT_ID": 62339, "ELEMENT_SET_NO": 999, "REV_AT_EPOCH": 771, "BSTAR": 0, "MEAN_MOTION_DOT": -6.9e-07, "MEAN_MOTION_DDOT": 0}, "tle": {"line1": "1 62339U 24242A   25356.50177728 -.00000069  00000+0  00000+0 0  9999", "line2": "2 62339  54.9208 341.3454 0012807 346.2078 123.2241  2.00568132  7712"}}, "geometry": {"type": "Point", "coordinates": [-29.02796888557865, -14.31425548576508]}}, {"type": "Feature", "properties": {"norad_id": 64202, "name": "GPS BIII-8  (PRN 21)", "group": "gps-ops", "lat": 6.979635696323295, "lon": -146.6648791436584, "alt_km": 20193.829947931714, "timestamp": "2025-12-23T07:45:09.663547+00:00", "meta": {"OBJECT_NAME": "GPS BIII-8  (PRN 21)", "OBJECT_ID": "2025-116A", "EPOCH": "2025-12-22T08:06:38.435904", "MEAN_MOTION": 2.0055774, "ECCENTRICITY": 0.00058811, "INCLINATION": 55.1123, "RA_OF_ASC_NODE": 38.2538, "ARG_OF_PERICENTER": 310.2998, "MEAN_ANOMALY": 229.9806, "EPHEMERIS_TYPE": 0, "CLASSIFICATION_TYPE": "U", "NORAD_CAT_ID": 64202, "ELEMENT_SET_NO": 999, "REV_AT_EPOCH": 432, "BSTAR": 0, "MEAN_MOTION_DOT": -5.2e-07, "MEAN_MOTION_DDOT": 0}, "tle": {"line1": "1 64202U 25116A   25356.33794486 -.00000052  00000+0  00000+0 0  9990", "line2": "2 64202  55.1123  38.2538 0005881 310.2998 229.9806  2.00557740  4321"}}, "geometry": {"type": "Point", "coordinates": [-146.6648791436584, 6.979635696323295]}}]}